HIMAWARI-8              
1 40267U 14060A   23344.87836729 -.00000245  00000+0  00000+0 0  9996
2 40267   0.0466 133.4298 0000731 153.4602 249.3187  1.00269823 33549
